[{"OBJECT_NAME":"STARLINK-1598","OBJECT_ID":"2020-057AV","EPOCH":"2026-03-09T20:27:31.815648","MEAN_MOTION":15.51269749,"ECCENTRICITY":0.00039579,"INCLINATION":53.0523,"RA_OF_ASC_NODE":282.8252,"ARG_OF_PERICENTER":206.2678,"MEAN_ANOMALY":153.813,"EPHEMERIS_TYPE":0,"CLASSIFICATION_TYPE":"U","NORAD_CAT_ID":46160,"ELEMENT_SET_NO":999,"REV_AT_EPOCH":30780,"BSTAR":0.0019256544,"MEAN_MOTION_DOT":0.00116093,"MEAN_MOTION_DDOT":0},{"OBJECT_NAME":"PEGASUS R\/B","OBJECT_ID":"2002-004B","EPOCH":"2026-03-09T07:11:51.016992","MEAN_MOTION":15.51953178,"ECCENTRICITY":0.00077214,"INCLINATION":38.0163,"RA_OF_ASC_NODE":76.1473,"ARG_OF_PERICENTER":199.0072,"MEAN_ANOMALY":161.0418,"EPHEMERIS_TYPE":0,"CLASSIFICATION_TYPE":"U","NORAD_CAT_ID":27371,"ELEMENT_SET_NO":999,"REV_AT_EPOCH":32600,"BSTAR":0.00056893587,"MEAN_MOTION_DOT":0.00035208,"MEAN_MOTION_DDOT":0}]
